[{"OBJECT_NAME":"SJ-11-03","OBJECT_ID":"2011-030A","EPOCH":"2026-03-09T23:29:54.715200","MEAN_MOTION":14.64220728,"ECCENTRICITY":0.00083094,"INCLINATION":97.9236,"RA_OF_ASC_NODE":36.6626,"ARG_OF_PERICENTER":357.4545,"MEAN_ANOMALY":43.1151,"EPHEMERIS_TYPE":0,"CLASSIFICATION_TYPE":"U","NORAD_CAT_ID":37730,"ELEMENT_SET_NO":999,"REV_AT_EPOCH":78259,"BSTAR":0.00019672092,"MEAN_MOTION_DOT":9.91e-6,"MEAN_MOTION_DDOT":0},{"OBJECT_NAME":"CZ-6A DEB","OBJECT_ID":"2024-140WV","EPOCH":"2026-03-09T14:07:40.342368","MEAN_MOTION":14.48825982,"ECCENTRICITY":0.0072173,"INCLINATION":89.1205,"RA_OF_ASC_NODE":291.7286,"ARG_OF_PERICENTER":268.5857,"MEAN_ANOMALY":90.7081,"EPHEMERIS_TYPE":0,"CLASSIFICATION_TYPE":"U","NORAD_CAT_ID":61380,"ELEMENT_SET_NO":999,"REV_AT_EPOCH":7981,"BSTAR":0.00058946,"MEAN_MOTION_DOT":2.315e-5,"MEAN_MOTION_DDOT":0}]
